[{"OBJECT_NAME":"STARLINK-35727","OBJECT_ID":"2025-247S","EPOCH":"2026-03-09T13:53:38.277600","MEAN_MOTION":15.30173698,"ECCENTRICITY":0.0001461,"INCLINATION":53.1586,"RA_OF_ASC_NODE":192.173,"ARG_OF_PERICENTER":32.0349,"MEAN_ANOMALY":328.074,"EPHEMERIS_TYPE":0,"CLASSIFICATION_TYPE":"U","NORAD_CAT_ID":66281,"ELEMENT_SET_NO":999,"REV_AT_EPOCH":2101,"BSTAR":0.00053868,"MEAN_MOTION_DOT":0.00015616,"MEAN_MOTION_DDOT":0},{"OBJECT_NAME":"CZ-6A DEB","OBJECT_ID":"2022-151SD","EPOCH":"2026-03-09T21:25:15.700512","MEAN_MOTION":15.24469357,"ECCENTRICITY":0.00248717,"INCLINATION":98.6538,"RA_OF_ASC_NODE":157.5128,"ARG_OF_PERICENTER":174.047,"MEAN_ANOMALY":186.1065,"EPHEMERIS_TYPE":0,"CLASSIFICATION_TYPE":"U","NORAD_CAT_ID":54940,"ELEMENT_SET_NO":999,"REV_AT_EPOCH":17680,"BSTAR":0.0087519903,"MEAN_MOTION_DOT":0.00223015,"MEAN_MOTION_DDOT":0}]
